OTTER                   
1 62623U 25009Q   26068.72300813  .00012198  00000+0  45151-3 0  9990
2 62623  97.4065 151.3812 0003573 310.7710  49.3219 15.27809545 63722
STARLINK-34126          
1 64083U 25107V   26068.40115591  .00025398  00000+0  92824-3 0  9998
2 64083  42.9998 203.4065 0001550 276.3985  83.6690 15.27616604 44980
